CCSDS_OMM_VERS = 2.0
CREATION_DATE  = 
ORIGINATOR     = 

OBJECT_NAME    = STARLINK-35505
OBJECT_ID      = 2025-253L
CENTER_NAME    = EARTH
REF_FRAME      = TEME
TIME_SYSTEM    = UTC
MEAN_ELEMENT_THEORY = SGP/SGP4

EPOCH          = 2025-11-20T18:00:02.000160
MEAN_MOTION    = 15.75024287
ECCENTRICITY   = .0001445
INCLINATION    = 42.9992
RA_OF_ASC_NODE = 114.1109
ARG_OF_PERICENTER = 273.8929
MEAN_ANOMALY   = 329.4352

EPHEMERIS_TYPE = 0
CLASSIFICATION_TYPE = U
NORAD_CAT_ID   = 66329
ELEMENT_SET_NO = 999
REV_AT_EPOCH   = 339
BSTAR          = .13199E-3
MEAN_MOTION_DOT = .19832E-3
MEAN_MOTION_DDOT = 0

CCSDS_OMM_VERS = 2.0
CREATION_DATE  = 
ORIGINATOR     = 

OBJECT_NAME    = STARLINK-35512
OBJECT_ID      = 2025-253M
CENTER_NAME    = EARTH
REF_FRAME      = TEME
TIME_SYSTEM    = UTC
MEAN_ELEMENT_THEORY = SGP/SGP4

EPOCH          = 2025-11-20T18:00:02.000160
MEAN_MOTION    = 15.75015913
ECCENTRICITY   = .0001606
INCLINATION    = 42.9990
RA_OF_ASC_NODE = 114.0856
ARG_OF_PERICENTER = 277.7140
MEAN_ANOMALY   = 335.2013

EPHEMERIS_TYPE = 0
CLASSIFICATION_TYPE = U
NORAD_CAT_ID   = 66330
ELEMENT_SET_NO = 999
REV_AT_EPOCH   = 339
BSTAR          = .22526E-3
MEAN_MOTION_DOT = .34229E-3
MEAN_MOTION_DDOT = 0

CCSDS_OMM_VERS = 2.0
CREATION_DATE  = 
ORIGINATOR     = 

OBJECT_NAME    = STARLINK-35257
OBJECT_ID      = 2025-253N
CENTER_NAME    = EARTH
REF_FRAME      = TEME
TIME_SYSTEM    = UTC
MEAN_ELEMENT_THEORY = SGP/SGP4

EPOCH          = 2025-11-20T18:00:02.000160
MEAN_MOTION    = 15.75018035
ECCENTRICITY   = .0002051
INCLINATION    = 42.9990
RA_OF_ASC_NODE = 114.0466
ARG_OF_PERICENTER = 276.9104
MEAN_ANOMALY   = 351.3383

EPHEMERIS_TYPE = 0
CLASSIFICATION_TYPE = U
NORAD_CAT_ID   = 66331
ELEMENT_SET_NO = 999
REV_AT_EPOCH   = 312
BSTAR          = .22298E-3
MEAN_MOTION_DOT = .33881E-3
MEAN_MOTION_DDOT = 0

CCSDS_OMM_VERS = 2.0
CREATION_DATE  = 
ORIGINATOR     = 

OBJECT_NAME    = STARLINK-35322
OBJECT_ID      = 2025-253P
CENTER_NAME    = EARTH
REF_FRAME      = TEME
TIME_SYSTEM    = UTC
MEAN_ELEMENT_THEORY = SGP/SGP4

EPOCH          = 2025-11-20T18:00:02.000160
MEAN_MOTION    = 15.75005703
ECCENTRICITY   = .0001818
INCLINATION    = 42.9991
RA_OF_ASC_NODE = 114.0702
ARG_OF_PERICENTER = 288.1199
MEAN_ANOMALY   = 330.5525

EPHEMERIS_TYPE = 0
CLASSIFICATION_TYPE = U
NORAD_CAT_ID   = 66332
ELEMENT_SET_NO = 999
REV_AT_EPOCH   = 339
BSTAR          = .32058E-3
MEAN_MOTION_DOT = .48982E-3
MEAN_MOTION_DDOT = 0

CCSDS_OMM_VERS = 2.0
CREATION_DATE  = 
ORIGINATOR     = 

OBJECT_NAME    = STARLINK-35400
OBJECT_ID      = 2025-253Q
CENTER_NAME    = EARTH
REF_FRAME      = TEME
TIME_SYSTEM    = UTC
MEAN_ELEMENT_THEORY = SGP/SGP4

EPOCH          = 2025-11-20T18:00:02.000160
MEAN_MOTION    = 15.75027088
ECCENTRICITY   = .0001711
INCLINATION    = 43.0029
RA_OF_ASC_NODE = 114.0508
ARG_OF_PERICENTER = 275.9417
MEAN_ANOMALY   = 350.3872

EPHEMERIS_TYPE = 0
CLASSIFICATION_TYPE = U
NORAD_CAT_ID   = 66333
ELEMENT_SET_NO = 999
REV_AT_EPOCH   = 339
BSTAR          = .78626E-4
MEAN_MOTION_DOT = .1161E-3
MEAN_MOTION_DDOT = 0

CCSDS_OMM_VERS = 2.0
CREATION_DATE  = 
ORIGINATOR     = 

OBJECT_NAME    = STARLINK-35407
OBJECT_ID      = 2025-253R
CENTER_NAME    = EARTH
REF_FRAME      = TEME
TIME_SYSTEM    = UTC
MEAN_ELEMENT_THEORY = SGP/SGP4

EPOCH          = 2025-11-20T18:00:02.000160
MEAN_MOTION    = 15.75011377
ECCENTRICITY   = .000153
INCLINATION    = 42.9992
RA_OF_ASC_NODE = 114.0666
ARG_OF_PERICENTER = 270.1877
MEAN_ANOMALY   = 350.4015

EPHEMERIS_TYPE = 0
CLASSIFICATION_TYPE = U
NORAD_CAT_ID   = 66334
ELEMENT_SET_NO = 999
REV_AT_EPOCH   = 339
BSTAR          = .24389E-3
MEAN_MOTION_DOT = .37106E-3
MEAN_MOTION_DDOT = 0

CCSDS_OMM_VERS = 2.0
CREATION_DATE  = 
ORIGINATOR     = 

OBJECT_NAME    = STARLINK-35417
OBJECT_ID      = 2025-253S
CENTER_NAME    = EARTH
REF_FRAME      = TEME
TIME_SYSTEM    = UTC
MEAN_ELEMENT_THEORY = SGP/SGP4

EPOCH          = 2025-11-20T18:00:02.000160
MEAN_MOTION    = 15.75057143
ECCENTRICITY   = .00019
INCLINATION    = 42.9992
RA_OF_ASC_NODE = 114.0274
ARG_OF_PERICENTER = 262.9407
MEAN_ANOMALY   = 12.9744

EPHEMERIS_TYPE = 0
CLASSIFICATION_TYPE = U
NORAD_CAT_ID   = 66335
ELEMENT_SET_NO = 999
REV_AT_EPOCH   = 339
BSTAR          = -.2665E-3
MEAN_MOTION_DOT = -.4125E-3
MEAN_MOTION_DDOT = 0

CCSDS_OMM_VERS = 2.0
CREATION_DATE  = 
ORIGINATOR     = 

OBJECT_NAME    = STARLINK-35404
OBJECT_ID      = 2025-253T
CENTER_NAME    = EARTH
REF_FRAME      = TEME
TIME_SYSTEM    = UTC
MEAN_ELEMENT_THEORY = SGP/SGP4

EPOCH          = 2025-11-20T18:00:02.000160
MEAN_MOTION    = 15.75034995
ECCENTRICITY   = .0001533
INCLINATION    = 42.9990
RA_OF_ASC_NODE = 114.0419
ARG_OF_PERICENTER = 279.6402
MEAN_ANOMALY   = 350.5268

EPHEMERIS_TYPE = 0
CLASSIFICATION_TYPE = U
NORAD_CAT_ID   = 66336
ELEMENT_SET_NO = 999
REV_AT_EPOCH   = 349
BSTAR          = .26385E-4
MEAN_MOTION_DOT = .3576E-4
MEAN_MOTION_DDOT = 0

CCSDS_OMM_VERS = 2.0
CREATION_DATE  = 
ORIGINATOR     = 

OBJECT_NAME    = STARLINK-34783
OBJECT_ID      = 2025-253U
CENTER_NAME    = EARTH
REF_FRAME      = TEME
TIME_SYSTEM    = UTC
MEAN_ELEMENT_THEORY = SGP/SGP4

EPOCH          = 2025-11-20T18:00:02.000160
MEAN_MOTION    = 15.75015077
ECCENTRICITY   = .0001582
INCLINATION    = 42.9991
RA_OF_ASC_NODE = 114.0233
ARG_OF_PERICENTER = 286.7178
MEAN_ANOMALY   = 351.1215

EPHEMERIS_TYPE = 0
CLASSIFICATION_TYPE = U
NORAD_CAT_ID   = 66337
ELEMENT_SET_NO = 999
REV_AT_EPOCH   = 344
BSTAR          = .24632E-3
MEAN_MOTION_DOT = .37487E-3
MEAN_MOTION_DDOT = 0

CCSDS_OMM_VERS = 2.0
CREATION_DATE  = 
ORIGINATOR     = 

OBJECT_NAME    = STARLINK-35477
OBJECT_ID      = 2025-253V
CENTER_NAME    = EARTH
REF_FRAME      = TEME
TIME_SYSTEM    = UTC
MEAN_ELEMENT_THEORY = SGP/SGP4

EPOCH          = 2025-11-20T18:00:02.000160
MEAN_MOTION    = 15.75052210
ECCENTRICITY   = .0001936
INCLINATION    = 42.9990
RA_OF_ASC_NODE = 114.0327
ARG_OF_PERICENTER = 264.9218
MEAN_ANOMALY   = 9.0713

EPHEMERIS_TYPE = 0
CLASSIFICATION_TYPE = U
NORAD_CAT_ID   = 66338
ELEMENT_SET_NO = 999
REV_AT_EPOCH   = 349
BSTAR          = -.15324E-3
MEAN_MOTION_DOT = -.23964E-3
MEAN_MOTION_DDOT = 0

CCSDS_OMM_VERS = 2.0
CREATION_DATE  = 
ORIGINATOR     = 

OBJECT_NAME    = STARLINK-35443
OBJECT_ID      = 2025-253W
CENTER_NAME    = EARTH
REF_FRAME      = TEME
TIME_SYSTEM    = UTC
MEAN_ELEMENT_THEORY = SGP/SGP4

EPOCH          = 2025-11-20T18:00:02.000160
MEAN_MOTION    = 15.75025231
ECCENTRICITY   = .0001708
INCLINATION    = 42.9989
RA_OF_ASC_NODE = 114.0070
ARG_OF_PERICENTER = 261.6933
MEAN_ANOMALY   = 21.8861

EPHEMERIS_TYPE = 0
CLASSIFICATION_TYPE = U
NORAD_CAT_ID   = 66339
ELEMENT_SET_NO = 999
REV_AT_EPOCH   = 344
BSTAR          = .21934E-3
MEAN_MOTION_DOT = .33328E-3
MEAN_MOTION_DDOT = 0

CCSDS_OMM_VERS = 2.0
CREATION_DATE  = 
ORIGINATOR     = 

OBJECT_NAME    = STARLINK-35218
OBJECT_ID      = 2025-253X
CENTER_NAME    = EARTH
REF_FRAME      = TEME
TIME_SYSTEM    = UTC
MEAN_ELEMENT_THEORY = SGP/SGP4

EPOCH          = 2025-11-20T18:00:02.000160
MEAN_MOTION    = 15.75042778
ECCENTRICITY   = .0001965
INCLINATION    = 42.9990
RA_OF_ASC_NODE = 114.0369
ARG_OF_PERICENTER = 264.4385
MEAN_ANOMALY   = 7.6389

EPHEMERIS_TYPE = 0
CLASSIFICATION_TYPE = U
NORAD_CAT_ID   = 66340
ELEMENT_SET_NO = 999
REV_AT_EPOCH   = 349
BSTAR          = -.35251E-4
MEAN_MOTION_DOT = -.589E-4
MEAN_MOTION_DDOT = 0

