STARLINK-35505          
1 66329U 25253L   25324.75002315  .00019832  00000+0  13199-3 0  9990
2 66329  42.9992 114.1109 0001445 273.8929 329.4352 15.75024287  3398
STARLINK-35512          
1 66330U 25253M   25324.75002315  .00034229  00000+0  22526-3 0  9993
2 66330  42.9990 114.0856 0001606 277.7140 335.2013 15.75015913  3398
STARLINK-35257          
1 66331U 25253N   25324.75002315  .00033881  00000+0  22298-3 0  9993
2 66331  42.9990 114.0466 0002051 276.9104 351.3383 15.75018035  3120
STARLINK-35322          
1 66332U 25253P   25324.75002315  .00048982  00000+0  32058-3 0  9997
2 66332  42.9991 114.0702 0001818 288.1199 330.5525 15.75005703  3398
STARLINK-35400          
1 66333U 25253Q   25324.75002315  .00011610  00000+0  78626-4 0  9998
2 66333  43.0029 114.0508 0001711 275.9417 350.3872 15.75027088  3391
STARLINK-35407          
1 66334U 25253R   25324.75002315  .00037106  00000+0  24389-3 0  9993
2 66334  42.9992 114.0666 0001530 270.1877 350.4015 15.75011377  3394
STARLINK-35417          
1 66335U 25253S   25324.75002315 -.00041250  00000+0 -26650-3 0  9994
2 66335  42.9992 114.0274 0001900 262.9407  12.9744 15.75057143  3399
STARLINK-35404          
1 66336U 25253T   25324.75002315  .00003576  00000+0  26385-4 0  9998
2 66336  42.9990 114.0419 0001533 279.6402 350.5268 15.75034995  3494
STARLINK-34783          
1 66337U 25253U   25324.75002315  .00037487  00000+0  24632-3 0  9999
2 66337  42.9991 114.0233 0001582 286.7178 351.1215 15.75015077  3447
STARLINK-35477          
1 66338U 25253V   25324.75002315 -.00023964  00000+0 -15324-3 0  9995
2 66338  42.9990 114.0327 0001936 264.9218   9.0713 15.75052210  3494
STARLINK-35443          
1 66339U 25253W   25324.75002315  .00033328  00000+0  21934-3 0  9993
2 66339  42.9989 114.0070 0001708 261.6933  21.8861 15.75025231  3447
STARLINK-35218          
1 66340U 25253X   25324.75002315 -.00005890  00000+0 -35251-4 0  9998
2 66340  42.9990 114.0369 0001965 264.4385   7.6389 15.75042778  3496
